[{"OBJECT_NAME":"STARLINK-30150","OBJECT_ID":"2023-119V","EPOCH":"2026-03-09T22:00:01.999584","MEAN_MOTION":15.20981294,"ECCENTRICITY":0.00011353,"INCLINATION":43.0002,"RA_OF_ASC_NODE":79.6586,"ARG_OF_PERICENTER":273.1644,"MEAN_ANOMALY":263.6875,"EPHEMERIS_TYPE":0,"CLASSIFICATION_TYPE":"U","NORAD_CAT_ID":57621,"ELEMENT_SET_NO":999,"REV_AT_EPOCH":578,"BSTAR":0.046473955,"MEAN_MOTION_DOT":0.0113976,"MEAN_MOTION_DDOT":0},{"OBJECT_NAME":"KOWSAR 1.5","OBJECT_ID":"2025-313S","EPOCH":"2026-03-09T21:18:16.087680","MEAN_MOTION":15.21036379,"ECCENTRICITY":0.00150628,"INCLINATION":97.409,"RA_OF_ASC_NODE":145.1794,"ARG_OF_PERICENTER":3.7915,"MEAN_ANOMALY":356.3432,"EPHEMERIS_TYPE":0,"CLASSIFICATION_TYPE":"U","NORAD_CAT_ID":67264,"ELEMENT_SET_NO":999,"REV_AT_EPOCH":1084,"BSTAR":0.00042645892,"MEAN_MOTION_DOT":9.43e-5,"MEAN_MOTION_DDOT":0}]
